UNKNOWN                 
1 89146U          26073.05097197  .00003869  00000+0  70214-3 0  9996
2 89146  98.2529   6.8595 0092683 128.6151 232.3396 14.64032630642234
UNKNOWN                 
1 89161U          26073.29508300  .01054143  00000+0  45338-2 0  9992
2 89161  97.6336 100.2174 0015440 105.2456 255.0520 15.82307279562807
UNKNOWN                 
1 89172U          26072.90037422  .00009118  00000+0  14352-2 0  9996
2 89172  82.0616 136.2118 0281028   0.3288 359.8037 14.49264897615085
UNKNOWN                 
1 89183U          26073.51197671  .00000557  00000+0  52811-3 0  9990
2 89183  99.2175 347.5005 0129504 272.7723  85.8614 13.81711790619645
UNKNOWN                 
1 89184U          26073.59659923  .00041211  00000+0  46203-2 0  9991
2 89184  98.3855 307.9531 0007818 188.2138 171.8949 14.86644772505797
UNKNOWN                 
1 89213U          26072.86548369  .00000488  00000+0  33875-3 0  9997
2 89213  98.7709 306.2025 0226528 236.2583 121.6809 13.91709240465342
UNKNOWN                 
1 89251U          26072.43029476  .00019058  00000+0  10823-1 0  9994
2 89251  62.4752 244.6145 2823207 109.1415 283.3726  9.27329261381581
UNKNOWN                 
1 89261U          26051.43209576  .00000802  00000+0  25036-3 0  9994
2 89261  98.1600  47.8830 0011827 311.4506  48.5668 14.43288970543860
UNKNOWN                 
1 89349U          26073.07569918 -.00000070  00000+0 -27250-3 0  9993
2 89349  90.2518   9.4039 0032291  27.9024 332.3819 12.96288690490582
UNKNOWN                 
1 89379U          26073.31222796  .00003686  00000+0  46993-2 0  9991
2 89379 100.4762 100.4393 0043027 252.8475 106.7950 13.63527112593250
UNKNOWN                 
1 89395U          26070.89137321  .00000246  00000+0  32530-2 0  9999
2 89395 102.3828  39.1894 0224774 333.9759  50.0350 12.01554105535458
UNKNOWN                 
1 89403U          26070.07069765  .00001439  00000+0  48242-2 0  9997
2 89403  90.2525   7.8144 0031792 352.2576  22.8688 12.98894474489297
UNKNOWN                 
1 89484U          26073.58484426  .00323095  00000+0  10011+0 0  9995
2 89484  83.9647 127.6553 2852228 263.5805  63.7014  9.34498047363897
UNKNOWN                 
1 89493U          26072.98229279  .00003076  00000+0  15048-2 0  9993
2 89493  99.0156 148.0985 0083422 141.4381 219.2792 14.16848764476863
UNKNOWN                 
1 89494U          26068.16797994  .00003248  00000+0  15898-2 0  9997
2 89494  99.0154 143.0914 0084131 154.9361 205.5933 14.16750923476037
