[{"OBJECT_NAME":"UNKNOWN","OBJECT_ID":"","EPOCH":"2026-03-14T01:13:23.978208","MEAN_MOTION":14.6403263,"ECCENTRICITY":0.0092683,"INCLINATION":98.2529,"RA_OF_ASC_NODE":6.8595,"ARG_OF_PERICENTER":128.6151,"MEAN_ANOMALY":232.3396,"EPHEMERIS_TYPE":0,"CLASSIFICATION_TYPE":"U","NORAD_CAT_ID":89146,"ELEMENT_SET_NO":999,"REV_AT_EPOCH":64223,"BSTAR":0.00070214,"MEAN_MOTION_DOT":3.869e-5,"MEAN_MOTION_DDOT":0},{"OBJECT_NAME":"UNKNOWN","OBJECT_ID":"","EPOCH":"2026-03-14T07:04:55.171200","MEAN_MOTION":15.82307279,"ECCENTRICITY":0.001544,"INCLINATION":97.6336,"RA_OF_ASC_NODE":100.2174,"ARG_OF_PERICENTER":105.2456,"MEAN_ANOMALY":255.052,"EPHEMERIS_TYPE":0,"CLASSIFICATION_TYPE":"U","NORAD_CAT_ID":89161,"ELEMENT_SET_NO":999,"REV_AT_EPOCH":56280,"BSTAR":0.0045338,"MEAN_MOTION_DOT":0.01054143,"MEAN_MOTION_DDOT":0},{"OBJECT_NAME":"UNKNOWN","OBJECT_ID":"","EPOCH":"2026-03-13T21:36:32.332608","MEAN_MOTION":14.49264897,"ECCENTRICITY":0.0281028,"INCLINATION":82.0616,"RA_OF_ASC_NODE":136.2118,"ARG_OF_PERICENTER":0.3288,"MEAN_ANOMALY":359.8037,"EPHEMERIS_TYPE":0,"CLASSIFICATION_TYPE":"U","NORAD_CAT_ID":89172,"ELEMENT_SET_NO":999,"REV_AT_EPOCH":61508,"BSTAR":0.0014352,"MEAN_MOTION_DOT":9.118e-5,"MEAN_MOTION_DDOT":0},{"OBJECT_NAME":"UNKNOWN","OBJECT_ID":"","EPOCH":"2026-03-14T12:17:14.787744","MEAN_MOTION":13.8171179,"ECCENTRICITY":0.0129504,"INCLINATION":99.2175,"RA_OF_ASC_NODE":347.5005,"ARG_OF_PERICENTER":272.7723,"MEAN_ANOMALY":85.8614,"EPHEMERIS_TYPE":0,"CLASSIFICATION_TYPE":"U","NORAD_CAT_ID":89183,"ELEMENT_SET_NO":999,"REV_AT_EPOCH":61964,"BSTAR":0.00052811,"MEAN_MOTION_DOT":5.57e-6,"MEAN_MOTION_DDOT":0},{"OBJECT_NAME":"UNKNOWN","OBJECT_ID":"","EPOCH":"2026-03-14T14:19:06.173472","MEAN_MOTION":14.86644772,"ECCENTRICITY":0.0007818,"INCLINATION":98.3855,"RA_OF_ASC_NODE":307.9531,"ARG_OF_PERICENTER":188.2138,"MEAN_ANOMALY":171.8949,"EPHEMERIS_TYPE":0,"CLASSIFICATION_TYPE":"U","NORAD_CAT_ID":89184,"ELEMENT_SET_NO":999,"REV_AT_EPOCH":50579,"BSTAR":0.0046203,"MEAN_MOTION_DOT":0.00041211,"MEAN_MOTION_DDOT":0},{"OBJECT_NAME":"UNKNOWN","OBJECT_ID":"","EPOCH":"2026-03-13T20:46:17.790816","MEAN_MOTION":13.9170924,"ECCENTRICITY":0.0226528,"INCLINATION":98.7709,"RA_OF_ASC_NODE":306.2025,"ARG_OF_PERICENTER":236.2583,"MEAN_ANOMALY":121.6809,"EPHEMERIS_TYPE":0,"CLASSIFICATION_TYPE":"U","NORAD_CAT_ID":89213,"ELEMENT_SET_NO":999,"REV_AT_EPOCH":46534,"BSTAR":0.00033875,"MEAN_MOTION_DOT":4.88e-6,"MEAN_MOTION_DDOT":0},{"OBJECT_NAME":"UNKNOWN","OBJECT_ID":"","EPOCH":"2026-03-13T10:19:37.467264","MEAN_MOTION":9.27329261,"ECCENTRICITY":0.2823207,"INCLINATION":62.4752,"RA_OF_ASC_NODE":244.6145,"ARG_OF_PERICENTER":109.1415,"MEAN_ANOMALY":283.3726,"EPHEMERIS_TYPE":0,"CLASSIFICATION_TYPE":"U","NORAD_CAT_ID":89251,"ELEMENT_SET_NO":999,"REV_AT_EPOCH":38158,"BSTAR":0.010823,"MEAN_MOTION_DOT":0.00019058,"MEAN_MOTION_DDOT":0},{"OBJECT_NAME":"UNKNOWN","OBJECT_ID":"","EPOCH":"2026-02-20T10:22:13.073664","MEAN_MOTION":14.4328897,"ECCENTRICITY":0.0011827,"INCLINATION":98.16,"RA_OF_ASC_NODE":47.883,"ARG_OF_PERICENTER":311.4506,"MEAN_ANOMALY":48.5668,"EPHEMERIS_TYPE":0,"CLASSIFICATION_TYPE":"U","NORAD_CAT_ID":89261,"ELEMENT_SET_NO":999,"REV_AT_EPOCH":54386,"BSTAR":0.00025036,"MEAN_MOTION_DOT":8.02e-6,"MEAN_MOTION_DDOT":0},{"OBJECT_NAME":"UNKNOWN","OBJECT_ID":"","EPOCH":"2026-03-14T01:49:00.409152","MEAN_MOTION":12.9628869,"ECCENTRICITY":0.0032291,"INCLINATION":90.2518,"RA_OF_ASC_NODE":9.4039,"ARG_OF_PERICENTER":27.9024,"MEAN_ANOMALY":332.3819,"EPHEMERIS_TYPE":0,"CLASSIFICATION_TYPE":"U","NORAD_CAT_ID":89349,"ELEMENT_SET_NO":999,"REV_AT_EPOCH":49058,"BSTAR":-0.0002725,"MEAN_MOTION_DOT":-7.0e-7,"MEAN_MOTION_DDOT":0},{"OBJECT_NAME":"UNKNOWN","OBJECT_ID":"","EPOCH":"2026-03-14T07:29:36.495744","MEAN_MOTION":13.63527112,"ECCENTRICITY":0.0043027,"INCLINATION":100.4762,"RA_OF_ASC_NODE":100.4393,"ARG_OF_PERICENTER":252.8475,"MEAN_ANOMALY":106.795,"EPHEMERIS_TYPE":0,"CLASSIFICATION_TYPE":"U","NORAD_CAT_ID":89379,"ELEMENT_SET_NO":999,"REV_AT_EPOCH":59325,"BSTAR":0.0046993,"MEAN_MOTION_DOT":3.686e-5,"MEAN_MOTION_DDOT":0},{"OBJECT_NAME":"UNKNOWN","OBJECT_ID":"","EPOCH":"2026-03-11T21:23:34.645344","MEAN_MOTION":12.01554105,"ECCENTRICITY":0.0224774,"INCLINATION":102.3828,"RA_OF_ASC_NODE":39.1894,"ARG_OF_PERICENTER":333.9759,"MEAN_ANOMALY":50.035,"EPHEMERIS_TYPE":0,"CLASSIFICATION_TYPE":"U","NORAD_CAT_ID":89395,"ELEMENT_SET_NO":999,"REV_AT_EPOCH":53545,"BSTAR":0.003253,"MEAN_MOTION_DOT":2.46e-6,"MEAN_MOTION_DDOT":0},{"OBJECT_NAME":"UNKNOWN","OBJECT_ID":"","EPOCH":"2026-03-11T01:41:48.276960","MEAN_MOTION":12.98894474,"ECCENTRICITY":0.0031792,"INCLINATION":90.2525,"RA_OF_ASC_NODE":7.8144,"ARG_OF_PERICENTER":352.2576,"MEAN_ANOMALY":22.8688,"EPHEMERIS_TYPE":0,"CLASSIFICATION_TYPE":"U","NORAD_CAT_ID":89403,"ELEMENT_SET_NO":999,"REV_AT_EPOCH":48929,"BSTAR":0.0048242,"MEAN_MOTION_DOT":1.439e-5,"MEAN_MOTION_DDOT":0},{"OBJECT_NAME":"UNKNOWN","OBJECT_ID":"","EPOCH":"2026-03-14T14:02:10.544064","MEAN_MOTION":9.34498047,"ECCENTRICITY":0.2852228,"INCLINATION":83.9647,"RA_OF_ASC_NODE":127.6553,"ARG_OF_PERICENTER":263.5805,"MEAN_ANOMALY":63.7014,"EPHEMERIS_TYPE":0,"CLASSIFICATION_TYPE":"U","NORAD_CAT_ID":89484,"ELEMENT_SET_NO":999,"REV_AT_EPOCH":36389,"BSTAR":0.10011,"MEAN_MOTION_DOT":0.00323095,"MEAN_MOTION_DDOT":0},{"OBJECT_NAME":"UNKNOWN","OBJECT_ID":"","EPOCH":"2026-03-13T23:34:30.097056","MEAN_MOTION":14.16848764,"ECCENTRICITY":0.0083422,"INCLINATION":99.0156,"RA_OF_ASC_NODE":148.0985,"ARG_OF_PERICENTER":141.4381,"MEAN_ANOMALY":219.2792,"EPHEMERIS_TYPE":0,"CLASSIFICATION_TYPE":"U","NORAD_CAT_ID":89493,"ELEMENT_SET_NO":999,"REV_AT_EPOCH":47686,"BSTAR":0.0015048,"MEAN_MOTION_DOT":3.076e-5,"MEAN_MOTION_DDOT":0},{"OBJECT_NAME":"UNKNOWN","OBJECT_ID":"","EPOCH":"2026-03-09T04:01:53.466816","MEAN_MOTION":14.16750923,"ECCENTRICITY":0.0084131,"INCLINATION":99.0154,"RA_OF_ASC_NODE":143.0914,"ARG_OF_PERICENTER":154.9361,"MEAN_ANOMALY":205.5933,"EPHEMERIS_TYPE":0,"CLASSIFICATION_TYPE":"U","NORAD_CAT_ID":89494,"ELEMENT_SET_NO":999,"REV_AT_EPOCH":47603,"BSTAR":0.0015898,"MEAN_MOTION_DOT":3.248e-5,"MEAN_MOTION_DDOT":0}]
